{"spkid": "50986755", "covariance": {"epoch": "2459528.5", "data": [["1.179850961070623E-12", "-2.446625318787323E-12", "9.344942195628083E-11", "3.392642365897321E-12", "3.358730073546935E-10", "6.775126354392886E-12"], ["-2.446625318787323E-12", "5.073501889384695E-12", "-1.93782390873282E-10", "-7.035535340816135E-12", "-6.964902873657084E-10", "-1.404857466928032E-11"], ["9.344942195628083E-11", "-1.93782390873282E-10", "7.436459581180357E-9", "2.770130049909753E-10", "2.663617923191361E-8", "5.491925834131383E-10"], ["3.392642365897321E-12", "-7.035535340816135E-12", "2.770130049909753E-10", "3.913101060056711E-10", "5.95026725800939E-10", "-1.562658701617604E-10"], ["3.358730073546935E-10", "-6.964902873657084E-10", "2.663617923191361E-8", "5.95026725800939E-10", "9.602793559704876E-8", "2.119597548357327E-9"], ["6.775126354392886E-12", "-1.404857466928032E-11", "5.491925834131383E-10", "-1.562658701617604E-10", "2.119597548357327E-9", "4.612344890632126E-10"]], "elements": [{"label": "e", "value": ".6410790721674617", "title": "eccentricity", "units": null, "sigma": 1.08620944622601e-06, "name": "e"}, {"label": "q", "sigma": 2.25244353744654e-06, "name": "q", "units": "au", "title": "perihelion distance", "value": ".7459905816394069"}, {"label": "tp", "name": "tp", "sigma": 8.62349092953681e-05, "title": "time of perihelion passage", "value": "2460007.067290284933", "units": "TDB"}, {"sigma": 1.97815597465334e-05, "name": "om", "units": "deg", "title": "longitude of the ascending node", "value": "299.2528401537729", "label": "node"}, {"name": "w", "sigma": 0.000309883745293374, "title": "argument of perihelion", "value": "249.5650008060227", "units": "deg", "label": "peri"}, {"units": "deg", "title": "inclination", "value": "2.166387864005975", "name": "i", "sigma": 2.14763704816064e-05, "label": "i"}], "labels": ["e", "q", "tp", "node", "peri", "i"]}, "elements": [{"sigma": "1.0734E-6", "name": "e", "title": "eccentricity", "value": ".6405139729864441", "units": null, "label": "e"}, {"units": "au", "title": "semi-major axis", "value": "2.073512023326316", "sigma": "5.4779E-8", "name": "a", "label": "a"}, {"label": "q", "sigma": "2.2061E-6", "name": "q", "units": "au", "value": ".7453985992304168", "title": "perihelion distance"}, {"sigma": "2.147E-5", "name": "i", "title": "inclination; angle with respect to x-y ecliptic plane", "value": "2.166033419574864", "units": "deg", "label": "i"}, {"units": "deg", "title": "longitude of the ascending node", "value": "299.1167169177907", "name": "om", "sigma": "1.9583E-5", "label": "node"}, {"value": "249.7710714851557", "title": "argument of perihelion", "units": "deg", "sigma": ".00030939", "name": "w", "label": "peri"}, {"units": "deg", "title": "mean anomaly", "value": "34.05519953567126", "sigma": "4.329E-5", "name": "ma", "label": "M"}, {"name": "tp", "sigma": ".00012706", "units": "TDB", "title": "time of perihelion passage", "value": "2461097.333382346709", "label": "tp"}, {"units": "d", "value": "1090.581845403148", "title": "sidereal orbital period", "name": "per", "sigma": "4.3217E-5", "label": "period"}, {"label": "n", "name": "n", "sigma": "1.3081E-8", "title": "mean motion", "value": ".3300990214695178", "units": "deg/d"}, {"units": "au", "value": "3.401625447422215", "title": "aphelion distance", "sigma": "8.9866E-8", "name": "ad", "label": "Q"}], "epoch": "2461200.5"}